[
    {
        "Altitude(m)": 611965.16963154,
        "Argument of Periapsis(deg)": 0.0,
        "Eccentricity": 0.0,
        "Inclination(deg)": 60.0,
        "Latitude(deg)": 59.14011389953579,
        "Longitude(deg)": -106.03012899982464,
        "Mean Anomaly(deg)": -278.1818,
        "RAAN(deg)": 280.0,
        "Satellite Name": "Test1 1237",
        "Satellite Number": 1237,
        "Semi-Major Axis(m)": 6980739.136638005,
        "Time(s)": 0
    },
    {
        "Altitude(m)": 611995.7949748089,
        "Argument of Periapsis(deg)": 0.00010418945913296404,
        "Eccentricity": 0.0,
        "Inclination(deg)": 60.0,
        "Latitude(deg)": 59.28321326622245,
        "Longitude(deg)": -104.89676811051113,
        "Mean Anomaly(deg)": -277.56169385453813,
        "RAAN(deg)": 279.99957995086027,
        "Satellite Name": "Test1 1237",
        "Satellite Number": 1237,
        "Semi-Major Axis(m)": 6980739.136638005,
        "Time(s)": 10
    }
]